{
  "type": "FeatureCollection",
  "features": [
    {
      "type": "Feature",
      "properties": {
        "OBJECT_NAME": "JILIN-1 GAOFEN 03D43",
        "OBJECT_ID": "2022-098E",
        "EPOCH": "2025-11-29T20:19:15.720672",
        "MEAN_MOTION": 15.46526475,
        "ECCENTRICITY": 0.0003903,
        "INCLINATION": 97.5453,
        "RA_OF_ASC_NODE": 87.887,
        "ARG_OF_PERICENTER": 39.6757,
        "MEAN_ANOMALY": 320.4777,
        "EPHEMERIS_TYPE": 0,
        "CLASSIFICATION_TYPE": "U",
        "NORAD_CAT_ID": 53448,
        "ELEMENT_SET_NO": 999,
        "REV_AT_EPOCH": 18367,
        "BSTAR": 0.00075849,
        "MEAN_MOTION_DOT": 0.00037718,
        "MEAN_MOTION_DDOT": 0,
        "norad_id": 53448,
        "name": "JILIN-1 GAOFEN 03D43",
        "group": "active",
        "longitude_deg": NaN,
        "latitude_deg": NaN,
        "alt_km": NaN,
        "orbit_class": "HEO",
        "timestamp": "2025-11-30T05:40:21.641526+00:00"
      },
      "geometry": {
        "type": "Point",
        "coordinates": [
          NaN,
          NaN
        ]
      }
    },
    {
      "type": "Feature",
      "properties": {
        "OBJECT_NAME": "DONGPO 05",
        "OBJECT_ID": "2022-098F",
        "EPOCH": "2025-11-29T21:04:25.272192",
        "MEAN_MOTION": 15.49140093,
        "ECCENTRICITY": 0.0002063,
        "INCLINATION": 97.5384,
        "RA_OF_ASC_NODE": 87.9752,
        "ARG_OF_PERICENTER": 10.437,
        "MEAN_ANOMALY": 349.6923,
        "EPHEMERIS_TYPE": 0,
        "CLASSIFICATION_TYPE": "U",
        "NORAD_CAT_ID": 53449,
        "ELEMENT_SET_NO": 999,
        "REV_AT_EPOCH": 18374,
        "BSTAR": 0.00083479,
        "MEAN_MOTION_DOT": 0.00045496,
        "MEAN_MOTION_DDOT": 0,
        "norad_id": 53449,
        "name": "DONGPO 05",
        "group": "active",
        "longitude_deg": NaN,
        "latitude_deg": NaN,
        "alt_km": NaN,
        "orbit_class": "HEO",
        "timestamp": "2025-11-30T05:40:21.641534+00:00"
      },
      "geometry": {
        "type": "Point",
        "coordinates": [
          NaN,
          NaN
        ]
      }
    },
    {
      "type": "Feature",
      "properties": {
        "OBJECT_NAME": "DONGPO 03",
        "OBJECT_ID": "2022-098G",
        "EPOCH": "2025-11-29T21:06:40.209120",
        "MEAN_MOTION": 15.53829391,
        "ECCENTRICITY": 0.0001586,
        "INCLINATION": 97.547,
        "RA_OF_ASC_NODE": 90.5273,
        "ARG_OF_PERICENTER": 37.5062,
        "MEAN_ANOMALY": 322.6302,
        "EPHEMERIS_TYPE": 0,
        "CLASSIFICATION_TYPE": "U",
        "NORAD_CAT_ID": 53450,
        "ELEMENT_SET_NO": 999,
        "REV_AT_EPOCH": 18384,
        "BSTAR": 0.00086122,
        "MEAN_MOTION_DOT": 0.00055534,
        "MEAN_MOTION_DDOT": 0,
        "norad_id": 53450,
        "name": "DONGPO 03",
        "group": "active",
        "longitude_deg": NaN,
        "latitude_deg": NaN,
        "alt_km": NaN,
        "orbit_class": "HEO",
        "timestamp": "2025-11-30T05:40:21.641539+00:00"
      },
      "geometry": {
        "type": "Point",
        "coordinates": [
          NaN,
          NaN
        ]
      }
    },
    {
      "type": "Feature",
      "properties": {
        "OBJECT_NAME": "DONGPO 04",
        "OBJECT_ID": "2022-098H",
        "EPOCH": "2025-11-29T20:37:38.520768",
        "MEAN_MOTION": 15.57431985,
        "ECCENTRICITY": 0.0001868,
        "INCLINATION": 97.5523,
        "RA_OF_ASC_NODE": 93.035,
        "ARG_OF_PERICENTER": 9.2782,
        "MEAN_ANOMALY": 350.8507,
        "EPHEMERIS_TYPE": 0,
        "CLASSIFICATION_TYPE": "U",
        "NORAD_CAT_ID": 53451,
        "ELEMENT_SET_NO": 999,
        "REV_AT_EPOCH": 18394,
        "BSTAR": 0.00088423,
        "MEAN_MOTION_DOT": 0.00065162,
        "MEAN_MOTION_DDOT": 0,
        "norad_id": 53451,
        "name": "DONGPO 04",
        "group": "active",
        "longitude_deg": NaN,
        "latitude_deg": NaN,
        "alt_km": NaN,
        "orbit_class": "HEO",
        "timestamp": "2025-11-30T05:40:21.641545+00:00"
      },
      "geometry": {
        "type": "Point",
        "coordinates": [
          NaN,
          NaN
        ]
      }
    },
    {
      "type": "Feature",
      "properties": {
        "OBJECT_NAME": "DONGPO 02",
        "OBJECT_ID": "2022-098J",
        "EPOCH": "2025-11-29T20:47:21.424416",
        "MEAN_MOTION": 15.47911961,
        "ECCENTRICITY": 0.0002759,
        "INCLINATION": 97.5386,
        "RA_OF_ASC_NODE": 87.7156,
        "ARG_OF_PERICENTER": 339.4093,
        "MEAN_ANOMALY": 20.7045,
        "EPHEMERIS_TYPE": 0,
        "CLASSIFICATION_TYPE": "U",
        "NORAD_CAT_ID": 53452,
        "ELEMENT_SET_NO": 999,
        "REV_AT_EPOCH": 18372,
        "BSTAR": 0.00081532,
        "MEAN_MOTION_DOT": 0.00042558,
        "MEAN_MOTION_DDOT": 0,
        "norad_id": 53452,
        "name": "DONGPO 02",
        "group": "active",
        "longitude_deg": NaN,
        "latitude_deg": NaN,
        "alt_km": NaN,
        "orbit_class": "HEO",
        "timestamp": "2025-11-30T05:40:21.641553+00:00"
      },
      "geometry": {
        "type": "Point",
        "coordinates": [
          NaN,
          NaN
        ]
      }
    },
    {
      "type": "Feature",
      "properties": {
        "OBJECT_NAME": "DONGPO 01",
        "OBJECT_ID": "2022-098K",
        "EPOCH": "2025-11-29T20:17:09.117888",
        "MEAN_MOTION": 15.47360799,
        "ECCENTRICITY": 4.73e-05,
        "INCLINATION": 97.5465,
        "RA_OF_ASC_NODE": 88.3829,
        "ARG_OF_PERICENTER": 69.7257,
        "MEAN_ANOMALY": 290.4043,
        "EPHEMERIS_TYPE": 0,
        "CLASSIFICATION_TYPE": "U",
        "NORAD_CAT_ID": 53453,
        "ELEMENT_SET_NO": 999,
        "REV_AT_EPOCH": 18370,
        "BSTAR": 0.00077019,
        "MEAN_MOTION_DOT": 0.00039418,
        "MEAN_MOTION_DDOT": 0,
        "norad_id": 53453,
        "name": "DONGPO 01",
        "group": "active",
        "longitude_deg": NaN,
        "latitude_deg": NaN,
        "alt_km": NaN,
        "orbit_class": "HEO",
        "timestamp": "2025-11-30T05:40:21.641560+00:00"
      },
      "geometry": {
        "type": "Point",
        "coordinates": [
          NaN,
          NaN
        ]
      }
    },
    {
      "type": "Feature",
      "properties": {
        "OBJECT_NAME": "YAOGAN-35 04A",
        "OBJECT_ID": "2022-100A",
        "EPOCH": "2025-11-27T21:03:37.207872",
        "MEAN_MOTION": 15.23016399,
        "ECCENTRICITY": 0.0003394,
        "INCLINATION": 35.0089,
        "RA_OF_ASC_NODE": 237.6551,
        "ARG_OF_PERICENTER": 258.7393,
        "MEAN_ANOMALY": 101.2941,
        "EPHEMERIS_TYPE": 0,
        "CLASSIFICATION_TYPE": "U",
        "NORAD_CAT_ID": 53522,
        "ELEMENT_SET_NO": 999,
        "REV_AT_EPOCH": 18255,
        "BSTAR": -8.6891e-07,
        "MEAN_MOTION_DOT": -5.8e-07,
        "MEAN_MOTION_DDOT": 0,
        "norad_id": 53522,
        "name": "YAOGAN-35 04A",
        "group": "active",
        "longitude_deg": NaN,
        "latitude_deg": NaN,
        "alt_km": NaN,
        "orbit_class": "HEO",
        "timestamp": "2025-11-30T05:40:21.641842+00:00"
      },
      "geometry": {
        "type": "Point",
        "coordinates": [
          NaN,
          NaN
        ]
      }
    },
    {
      "type": "Feature",
      "properties": {
        "OBJECT_NAME": "YAOGAN-35 04B",
        "OBJECT_ID": "2022-100C",
        "EPOCH": "2025-11-29T20:22:45.073920",
        "MEAN_MOTION": 15.29794734,
        "ECCENTRICITY": 0.0008301,
        "INCLINATION": 35.0029,
        "RA_OF_ASC_NODE": 219.8751,
        "ARG_OF_PERICENTER": 267.844,
        "MEAN_ANOMALY": 92.1326,
        "EPHEMERIS_TYPE": 0,
        "CLASSIFICATION_TYPE": "U",
        "NORAD_CAT_ID": 53524,
        "ELEMENT_SET_NO": 999,
        "REV_AT_EPOCH": 7462,
        "BSTAR": 0.00034558,
        "MEAN_MOTION_DOT": 0.00010214,
        "MEAN_MOTION_DDOT": 0,
        "norad_id": 53524,
        "name": "YAOGAN-35 04B",
        "group": "active",
        "longitude_deg": NaN,
        "latitude_deg": NaN,
        "alt_km": NaN,
        "orbit_class": "HEO",
        "timestamp": "2025-11-30T05:40:21.641848+00:00"
      },
      "geometry": {
        "type": "Point",
        "coordinates": [
          NaN,
          NaN
        ]
      }
    }
  ]
}