JILIN-1 GAOFEN 03D43    
1 53448U 22098E   25333.84670973  .00037718  00000+0  75849-3 0  9996
2 53448  97.5453  87.8870 0003903  39.6757 320.4777 15.46526475183679
DONGPO 05               
1 53449U 22098F   25333.87807028  .00045496  00000+0  83479-3 0  9993
2 53449  97.5384  87.9752 0002063  10.4370 349.6923 15.49140093183742
DONGPO 03               
1 53450U 22098G   25333.87963205  .00055534  00000+0  86122-3 0  9997
2 53450  97.5470  90.5273 0001586  37.5062 322.6302 15.53829391183848
DONGPO 04               
1 53451U 22098H   25333.85947362  .00065162  00000+0  88423-3 0  9996
2 53451  97.5523  93.0350 0001868   9.2782 350.8507 15.57431985183943
DONGPO 02               
1 53452U 22098J   25333.86622019  .00042558  00000+0  81532-3 0  9995
2 53452  97.5386  87.7156 0002759 339.4093  20.7045 15.47911961183720
DONGPO 01               
1 53453U 22098K   25333.84524442  .00039418  00000+0  77019-3 0  9991
2 53453  97.5465  88.3829 0000473  69.7257 290.4043 15.47360799183708
YAOGAN-35 04A           
1 53522U 22100A   25331.87751398 -.00000058  00000+0 -86891-6 0  9996
2 53522  35.0089 237.6551 0003394 258.7393 101.2941 15.23016399182557
YAOGAN-35 04B           
1 53524U 22100C   25333.84913280  .00010214  00000+0  34558-3 0  9990
2 53524  35.0029 219.8751 0008301 267.8440  92.1326 15.29794734 74629
